start=new Date('2022-12-24T00:00:00.000Z').valueOf();
sats=[{"TIME_SYSTEM":"UTC","CENTER_NAME":"EARTH","PERIOD":"95.438","BSTAR":"0.00008907500000","REV_AT_EPOCH":"4622","MEAN_MOTION_DDOT":"0.0000000000000","MEAN_ELEMENT_THEORY":"SGP4","ARG_OF_PERICENTER":"31.4870","RA_OF_ASC_NODE":"229.2701","REF_FRAME":"TEME","EPHEMERIS_TYPE":"0","NORAD_CAT_ID":"51873","DECAY_DATE":null,"INCLINATION":"53.2175","ECCENTRICITY":"0.00025420","APOAPSIS":"541.541","ELEMENT_SET_NO":"999","MEAN_MOTION":"15.08827741","GP_ID":"221311688","LAUNCH_DATE":"2022-03-03","OBJECT_NAME":"STARLINK-3582","MEAN_ANOMALY":"328.6274","OBJECT_ID":"2022-022X","SEMIMAJOR_AXIS":"6917.918","SITE":"AFETR","MEAN_MOTION_DOT":"0.00001129","TLE_LINE2":"2 51873  53.2175 229.2701 0002542  31.4870 328.6274 15.08827741 46227","CLASSIFICATION_TYPE":"U","FILE":"3720603","OBJECT_TYPE":"PAYLOAD","PERIAPSIS":"538.024","EPOCH":"2022-12-23T22:46:31.548000","RCS_SIZE":"LARGE","COUNTRY_CODE":"US","TLE_LINE1":"1 51873U 22022X   22357.94897625  .00001129  00000-0  89075-4 0  9997"},{"GP_ID":"221310380","APOAPSIS":"541.344","ECCENTRICITY":"0.00023560","ELEMENT_SET_NO":"999","MEAN_MOTION":"15.08850092","DECAY_DATE":null,"INCLINATION":"53.2175","EPHEMERIS_TYPE":"0","NORAD_CAT_ID":"51874","REF_FRAME":"TEME","ARG_OF_PERICENTER":"39.3891","RA_OF_ASC_NODE":"229.2474","REV_AT_EPOCH":"4621","MEAN_ELEMENT_THEORY":"SGP4","MEAN_MOTION_DDOT":"0.0000000000000","BSTAR":"0.00006376800000","TIME_SYSTEM":"UTC","CENTER_NAME":"EARTH","PERIOD":"95.437","COUNTRY_CODE":"US","RCS_SIZE":"LARGE","EPOCH":"2022-12-23T22:57:05.974560","TLE_LINE1":"1 51874U 22022Y   22357.95631915  .00000727  00000-0  63768-4 0  9991","FILE":"3720547","PERIAPSIS":"538.085","OBJECT_TYPE":"PAYLOAD","CLASSIFICATION_TYPE":"U","MEAN_MOTION_DOT":"0.00000727","TLE_LINE2":"2 51874  53.2175 229.2474 0002356  39.3891 320.7272 15.08850092 46213","SITE":"AFETR","SEMIMAJOR_AXIS":"6917.850","OBJECT_ID":"2022-022Y","MEAN_ANOMALY":"320.7272","OBJECT_NAME":"STARLINK-3574","LAUNCH_DATE":"2022-03-03"},{"SITE":"AFETR","SEMIMAJOR_AXIS":"6917.842","OBJECT_ID":"2022-022Z","MEAN_ANOMALY":"307.3294","LAUNCH_DATE":"2022-03-03","OBJECT_NAME":"STARLINK-3585","TLE_LINE1":"1 51875U 22022Z   22357.81008392  .00000367  00000-0  41162-4 0  9998","EPOCH":"2022-12-23T19:26:31.250688","RCS_SIZE":"LARGE","COUNTRY_CODE":"US","OBJECT_TYPE":"PAYLOAD","PERIAPSIS":"537.977","FILE":"3720547","CLASSIFICATION_TYPE":"U","TLE_LINE2":"2 51875  53.2133 229.9065 0002501  52.7926 307.3294 15.08852556 46202","MEAN_MOTION_DOT":"0.00000367","RA_OF_ASC_NODE":"229.9065","ARG_OF_PERICENTER":"52.7926","MEAN_MOTION_DDOT":"0.0000000000000","MEAN_ELEMENT_THEORY":"SGP4","REV_AT_EPOCH":"4620","BSTAR":"0.00004116200000","PERIOD":"95.437","CENTER_NAME":"EARTH","TIME_SYSTEM":"UTC","GP_ID":"221310478","MEAN_MOTION":"15.08852556","ELEMENT_SET_NO":"999","ECCENTRICITY":"0.00025010","APOAPSIS":"541.437","INCLINATION":"53.2133","DECAY_DATE":null,"REF_FRAME":"TEME","EPHEMERIS_TYPE":"0","NORAD_CAT_ID":"51875"},{"DECAY_DATE":null,"INCLINATION":"53.2169","REF_FRAME":"TEME","EPHEMERIS_TYPE":"0","NORAD_CAT_ID":"51876","GP_ID":"221310378","ECCENTRICITY":"0.00031090","APOAPSIS":"541.917","ELEMENT_SET_NO":"999","MEAN_MOTION":"15.08833231","BSTAR":"0.00027168000000","CENTER_NAME":"EARTH","TIME_SYSTEM":"UTC","PERIOD":"95.438","ARG_OF_PERICENTER":"22.2991","RA_OF_ASC_NODE":"229.2506","REV_AT_EPOCH":"4622","MEAN_MOTION_DDOT":"0.0000000000000","MEAN_ELEMENT_THEORY":"SGP4","CLASSIFICATION_TYPE":"U","MEAN_MOTION_DOT":"0.00004037","TLE_LINE2":"2 51876  53.2169 229.2506 0003109  22.2991 337.8136 15.08833231 46228","EPOCH":"2022-12-23T22:51:49.482720","RCS_SIZE":"LARGE","COUNTRY_CODE":"US","TLE_LINE1":"1 51876U 22022AA  22357.95265605  .00004037  00000-0  27168-3 0  9993","FILE":"3720547","OBJECT_TYPE":"PAYLOAD","PERIAPSIS":"537.615","MEAN_ANOMALY":"337.8136","LAUNCH_DATE":"2022-03-03","OBJECT_NAME":"STARLINK-3583","SITE":"AFETR","SEMIMAJOR_AXIS":"6917.901","OBJECT_ID":"2022-022AA"},{"MEAN_ANOMALY":"311.1334","OBJECT_NAME":"STARLINK-3556","LAUNCH_DATE":"2022-03-03","SEMIMAJOR_AXIS":"6917.876","SITE":"AFETR","OBJECT_ID":"2022-022AB","CLASSIFICATION_TYPE":"U","TLE_LINE2":"2 51877  53.2147 219.9313 0001878  48.9820 311.1334 15.08841591 46339","MEAN_MOTION_DOT":"0.00001481","TLE_LINE1":"1 51877U 22022AB  22357.80269414  .00001481  00000-0  11115-3 0  9995","COUNTRY_CODE":"US","EPOCH":"2022-12-23T19:15:52.773696","RCS_SIZE":"LARGE","PERIAPSIS":"538.441","OBJECT_TYPE":"PAYLOAD","FILE":"3720518","BSTAR":"0.00011115000000","PERIOD":"95.437","CENTER_NAME":"EARTH","TIME_SYSTEM":"UTC","RA_OF_ASC_NODE":"219.9313","ARG_OF_PERICENTER":"48.9820","MEAN_ELEMENT_THEORY":"SGP4","MEAN_MOTION_DDOT":"0.0000000000000","REV_AT_EPOCH":"4633","INCLINATION":"53.2147","DECAY_DATE":null,"EPHEMERIS_TYPE":"0","NORAD_CAT_ID":"51877","REF_FRAME":"TEME","GP_ID":"221307637","MEAN_MOTION":"15.08841591","ELEMENT_SET_NO":"999","APOAPSIS":"541.040","ECCENTRICITY":"0.00018780"},{"APOAPSIS":"541.501","ECCENTRICITY":"0.00025570","ELEMENT_SET_NO":"999","MEAN_MOTION":"15.08844427","GP_ID":"221306407","NORAD_CAT_ID":"51878","EPHEMERIS_TYPE":"0","REF_FRAME":"TEME","DECAY_DATE":null,"INCLINATION":"53.2153","REV_AT_EPOCH":"4620","MEAN_ELEMENT_THEORY":"SGP4","MEAN_MOTION_DDOT":"0.0000000000000","ARG_OF_PERICENTER":"36.4479","RA_OF_ASC_NODE":"229.8948","TIME_SYSTEM":"UTC","CENTER_NAME":"EARTH","PERIOD":"95.437","BSTAR":"0.00023622000000","FILE":"3720518","OBJECT_TYPE":"PAYLOAD","PERIAPSIS":"537.963","COUNTRY_CODE":"US","RCS_SIZE":"LARGE","EPOCH":"2022-12-23T19:30:25.823232","TLE_LINE1":"1 51878U 22022AC  22357.81279888  .00003474  00000-0  23622-3 0  9993","MEAN_MOTION_DOT":"0.00003474","TLE_LINE2":"2 51878  53.2153 229.8948 0002557  36.4479 323.6686 15.08844427 46203","CLASSIFICATION_TYPE":"U","OBJECT_ID":"2022-022AC","SITE":"AFETR","SEMIMAJOR_AXIS":"6917.867","OBJECT_NAME":"STARLINK-3575","LAUNCH_DATE":"2022-03-03","MEAN_ANOMALY":"323.6686"},{"PERIOD":"95.437","CENTER_NAME":"EARTH","TIME_SYSTEM":"UTC","BSTAR":"0.00001685800000","MEAN_ELEMENT_THEORY":"SGP4","MEAN_MOTION_DDOT":"0.0000000000000","REV_AT_EPOCH":"4632","RA_OF_ASC_NODE":"220.2607","ARG_OF_PERICENTER":"59.2022","EPHEMERIS_TYPE":"0","NORAD_CAT_ID":"51879","REF_FRAME":"TEME","INCLINATION":"53.2151","DECAY_DATE":null,"MEAN_MOTION":"15.08843102","ELEMENT_SET_NO":"999","APOAPSIS":"541.055","ECCENTRICITY":"0.00019070","GP_ID":"221306657","OBJECT_NAME":"STARLINK-3572","LAUNCH_DATE":"2022-03-03","MEAN_ANOMALY":"300.9157","OBJECT_ID":"2022-022AD","SEMIMAJOR_AXIS":"6917.871","SITE":"AFETR","TLE_LINE2":"2 51879  53.2151 220.2607 0001907  59.2022 300.9157 15.08843102 46327","MEAN_MOTION_DOT":"-0.00000020","CLASSIFICATION_TYPE":"U","OBJECT_TYPE":"PAYLOAD","PERIAPSIS":"538.417","FILE":"3720518","TLE_LINE1":"1 51879U 22022AD  22357.72909785 -.00000020  00000-0  16858-4 0  9999","COUNTRY_CODE":"US","RCS_SIZE":"LARGE","EPOCH":"2022-12-23T17:29:54.054240"},{"MEAN_ANOMALY":"328.2748","OBJECT_NAME":"STARLINK-3566","LAUNCH_DATE":"2022-03-03","SEMIMAJOR_AXIS":"6917.867","SITE":"AFETR","OBJECT_ID":"2022-022AE","CLASSIFICATION_TYPE":"U","MEAN_MOTION_DOT":"0.00002645","TLE_LINE2":"2 51880  53.2149 228.8557 0002894  31.8418 328.2748 15.08844486 46230","COUNTRY_CODE":"US","EPOCH":"2022-12-24T01:00:22.545504","RCS_SIZE":"LARGE","TLE_LINE1":"1 51880U 22022AE  22358.04192761  .00002645  00000-0  18419-3 0  9993","FILE":"3720604","PERIAPSIS":"537.730","OBJECT_TYPE":"PAYLOAD","BSTAR":"0.00018419000000","TIME_SYSTEM":"UTC","CENTER_NAME":"EARTH","PERIOD":"95.437","ARG_OF_PERICENTER":"31.8418","RA_OF_ASC_NODE":"228.8557","REV_AT_EPOCH":"4623","MEAN_ELEMENT_THEORY":"SGP4","MEAN_MOTION_DDOT":"0.0000000000000","DECAY_DATE":null,"INCLINATION":"53.2149","NORAD_CAT_ID":"51880","EPHEMERIS_TYPE":"0","REF_FRAME":"TEME","GP_ID":"221311949","APOAPSIS":"541.734","ECCENTRICITY":"0.00028940","MEAN_MOTION":"15.08844486","ELEMENT_SET_NO":"999"},{"MEAN_ELEMENT_THEORY":"SGP4","MEAN_MOTION_DDOT":"0.0000000000000","REV_AT_EPOCH":"4637","RA_OF_ASC_NODE":"220.2999","ARG_OF_PERICENTER":"40.7851","PERIOD":"95.438","TIME_SYSTEM":"UTC","CENTER_NAME":"EARTH","BSTAR":"-0.00008478200000","ELEMENT_SET_NO":"999","MEAN_MOTION":"15.08836004","APOAPSIS":"541.720","ECCENTRICITY":"0.00028370","GP_ID":"221308138","NORAD_CAT_ID":"51881","EPHEMERIS_TYPE":"0","REF_FRAME":"TEME","INCLINATION":"53.2149","DECAY_DATE":null,"OBJECT_ID":"2022-022AF","SITE":"AFETR","SEMIMAJOR_AXIS":"6917.893","OBJECT_NAME":"STARLINK-3504","LAUNCH_DATE":"2022-03-03","MEAN_ANOMALY":"319.3353","OBJECT_TYPE":"PAYLOAD","PERIAPSIS":"537.795","FILE":"3720518","TLE_LINE1":"1 51881U 22022AF  22357.72174215 -.00001638  00000-0 -84782-4 0  9992","COUNTRY_CODE":"US","RCS_SIZE":"LARGE","EPOCH":"2022-12-23T17:19:18.521760","TLE_LINE2":"2 51881  53.2149 220.2999 0002837  40.7851 319.3353 15.08836004 46379","MEAN_MOTION_DOT":"-0.00001638","CLASSIFICATION_TYPE":"U"},{"FILE":"3720518","PERIAPSIS":"537.646","OBJECT_TYPE":"PAYLOAD","RCS_SIZE":"LARGE","EPOCH":"2022-12-23T17:35:11.231232","COUNTRY_CODE":"US","TLE_LINE1":"1 51882U 22022AG  22357.73276888  .00006068  00000-0  39893-3 0  9995","MEAN_MOTION_DOT":"0.00006068","TLE_LINE2":"2 51882  53.2151 220.2327 0002985  27.2885 332.8264 15.08851314 46371","CLASSIFICATION_TYPE":"U","OBJECT_ID":"2022-022AG","SEMIMAJOR_AXIS":"6917.846","SITE":"AFETR","LAUNCH_DATE":"2022-03-03","OBJECT_NAME":"STARLINK-3570","MEAN_ANOMALY":"332.8264","ECCENTRICITY":"0.00029850","APOAPSIS":"541.776","ELEMENT_SET_NO":"999","MEAN_MOTION":"15.08851314","GP_ID":"221306908","REF_FRAME":"TEME","NORAD_CAT_ID":"51882","EPHEMERIS_TYPE":"0","DECAY_DATE":null,"INCLINATION":"53.2151","REV_AT_EPOCH":"4637","MEAN_MOTION_DDOT":"0.0000000000000","MEAN_ELEMENT_THEORY":"SGP4","ARG_OF_PERICENTER":"27.2885","RA_OF_ASC_NODE":"220.2327","CENTER_NAME":"EARTH","TIME_SYSTEM":"UTC","PERIOD":"95.437","BSTAR":"0.00039893000000"}];
